{
  "type": "FeatureCollection",
  "features": [
    {
      "type": "Feature",
      "properties": {
        "norad_id": 37994,
        "name": "COSMOS 2251 DEB",
        "group": "cosmos-2251-debris",
        "lat": 28.68162692123657,
        "lon": 64.58771946267812,
        "alt_km": 774.6534913260157,
        "timestamp": "2025-12-24T16:52:41.935713+00:00",
        "meta_object_name": "COSMOS 2251 DEB",
        "meta_object_id": "1993-036BQV",
        "meta_epoch": "2025-12-24T02:50:29.838624",
        "meta_mean_motion": 14.39647633,
        "meta_eccentricity": 0.00233668,
        "meta_inclination": 74.0358,
        "meta_ra_of_asc_node": 254.677,
        "meta_arg_of_pericenter": 332.1412,
        "meta_mean_anomaly": 27.849,
        "meta_ephemeris_type": 0,
        "meta_classification_type": "U",
        "meta_norad_cat_id": 37994,
        "meta_element_set_no": 999,
        "meta_rev_at_epoch": 77228,
        "meta_bstar": 0.00031412722,
        "meta_mean_motion_dot": 9.59e-06,
        "meta_mean_motion_ddot": 0,
        "tle_line1": "1 37994U 93036BQV 25358.11840091  .00000959  00000+0  31413-3 0  9997",
        "tle_line2": "2 37994  74.0358 254.6770 0023366 332.1412  27.8490 14.39647633772280"
      },
      "geometry": {
        "type": "Point",
        "coordinates": [
          64.58771946267812,
          28.68162692123657
        ]
      }
    },
    {
      "type": "Feature",
      "properties": {
        "norad_id": 37998,
        "name": "COSMOS 2251 DEB",
        "group": "cosmos-2251-debris",
        "lat": -52.29821042198952,
        "lon": -168.93601364464354,
        "alt_km": 733.4868782145841,
        "timestamp": "2025-12-24T16:52:41.935723+00:00",
        "meta_object_name": "COSMOS 2251 DEB",
        "meta_object_id": "1993-036BQZ",
        "meta_epoch": "2025-12-19T00:55:56.823168",
        "meta_mean_motion": 14.45502343,
        "meta_eccentricity": 0.00202427,
        "meta_inclination": 74.0345,
        "meta_ra_of_asc_node": 223.3597,
        "meta_arg_of_pericenter": 295.5973,
        "meta_mean_anomaly": 64.3093,
        "meta_ephemeris_type": 0,
        "meta_classification_type": "U",
        "meta_norad_cat_id": 37998,
        "meta_element_set_no": 999,
        "meta_rev_at_epoch": 64378,
        "meta_bstar": 0.00035299512,
        "meta_mean_motion_dot": 1.221e-05,
        "meta_mean_motion_ddot": 0,
        "tle_line1": "1 37998U 93036BQZ 25353.03885212  .00001221  00000+0  35300-3 0  9993",
        "tle_line2": "2 37998  74.0345 223.3597 0020242 295.5973  64.3093 14.45502343643786"
      },
      "geometry": {
        "type": "Point",
        "coordinates": [
          -168.93601364464354,
          -52.29821042198952
        ]
      }
    },
    {
      "type": "Feature",
      "properties": {
        "norad_id": 38001,
        "name": "COSMOS 2251 DEB",
        "group": "cosmos-2251-debris",
        "lat": -73.99074434015115,
        "lon": 18.21592391164475,
        "alt_km": 594.2237296839357,
        "timestamp": "2025-12-24T16:52:41.935734+00:00",
        "meta_object_name": "COSMOS 2251 DEB",
        "meta_object_id": "1993-036BRC",
        "meta_epoch": "2025-12-24T01:51:46.003392",
        "meta_mean_motion": 14.79203774,
        "meta_eccentricity": 0.00654196,
        "meta_inclination": 74.0016,
        "meta_ra_of_asc_node": 109.9766,
        "meta_arg_of_pericenter": 257.3946,
        "meta_mean_anomaly": 282.0061,
        "meta_ephemeris_type": 0,
        "meta_classification_type": "U",
        "meta_norad_cat_id": 38001,
        "meta_element_set_no": 999,
        "meta_rev_at_epoch": 74875,
        "meta_bstar": 0.00088063892,
        "meta_mean_motion_dot": 6.748e-05,
        "meta_mean_motion_ddot": 0,
        "tle_line1": "1 38001U 93036BRC 25358.07761578  .00006748  00000+0  88064-3 0  9990",
        "tle_line2": "2 38001  74.0016 109.9766 0065419 257.3946 282.0061 14.79203774748755"
      },
      "geometry": {
        "type": "Point",
        "coordinates": [
          18.21592391164475,
          -73.99074434015115
        ]
      }
    },
    {
      "type": "Feature",
      "properties": {
        "norad_id": 38006,
        "name": "COSMOS 2251 DEB",
        "group": "cosmos-2251-debris",
        "lat": 45.25122377040321,
        "lon": 178.54700144694155,
        "alt_km": 786.7118371946499,
        "timestamp": "2025-12-24T16:52:41.935744+00:00",
        "meta_object_name": "COSMOS 2251 DEB",
        "meta_object_id": "1993-036BRH",
        "meta_epoch": "2025-12-10T03:36:37.956384",
        "meta_mean_motion": 14.45867865,
        "meta_eccentricity": 0.00758537,
        "meta_inclination": 73.8744,
        "meta_ra_of_asc_node": 42.933,
        "meta_arg_of_pericenter": 348.3853,
        "meta_mean_anomaly": 11.555,
        "meta_ephemeris_type": 0,
        "meta_classification_type": "U",
        "meta_norad_cat_id": 38006,
        "meta_element_set_no": 999,
        "meta_rev_at_epoch": 62922,
        "meta_bstar": 0.0047338847,
        "meta_mean_motion_dot": 0.00017443,
        "meta_mean_motion_ddot": 0,
        "tle_line1": "1 38006U 93036BRH 25344.15043931  .00017443  00000+0  47339-2 0  9998",
        "tle_line2": "2 38006  73.8744  42.9330 0075853 348.3853  11.5550 14.45867865629227"
      },
      "geometry": {
        "type": "Point",
        "coordinates": [
          178.54700144694155,
          45.25122377040321
        ]
      }
    },
    {
      "type": "Feature",
      "properties": {
        "norad_id": 38054,
        "name": "COSMOS 2251 DEB",
        "group": "cosmos-2251-debris",
        "lat": -60.427597236147975,
        "lon": 96.69112632580769,
        "alt_km": 788.501448267175,
        "timestamp": "2025-12-24T16:52:41.935755+00:00",
        "meta_object_name": "COSMOS 2251 DEB",
        "meta_object_id": "1993-036BRL",
        "meta_epoch": "2025-12-23T03:29:54.046752",
        "meta_mean_motion": 13.62385705,
        "meta_eccentricity": 0.0357327,
        "meta_inclination": 73.9543,
        "meta_ra_of_asc_node": 248.7636,
        "meta_arg_of_pericenter": 224.8054,
        "meta_mean_anomaly": 302.3647,
        "meta_ephemeris_type": 0,
        "meta_classification_type": "U",
        "meta_norad_cat_id": 38054,
        "meta_element_set_no": 999,
        "meta_rev_at_epoch": 67321,
        "meta_bstar": 0.0018321676,
        "meta_mean_motion_dot": 2.157e-05,
        "meta_mean_motion_ddot": 0,
        "tle_line1": "1 38054U 93036BRL 25357.14576443  .00002157  00000+0  18322-2 0  9999",
        "tle_line2": "2 38054  73.9543 248.7636 0357327 224.8054 302.3647 13.62385705673215"
      },
      "geometry": {
        "type": "Point",
        "coordinates": [
          96.69112632580769,
          -60.427597236147975
        ]
      }
    },
    {
      "type": "Feature",
      "properties": {
        "norad_id": 38055,
        "name": "COSMOS 2251 DEB",
        "group": "cosmos-2251-debris",
        "lat": 64.50002391672905,
        "lon": -139.7765382807293,
        "alt_km": 656.0190135796392,
        "timestamp": "2025-12-24T16:52:41.935765+00:00",
        "meta_object_name": "COSMOS 2251 DEB",
        "meta_object_id": "1993-036BRM",
        "meta_epoch": "2025-12-23T19:29:54.305376",
        "meta_mean_motion": 14.77082596,
        "meta_eccentricity": 0.00661115,
        "meta_inclination": 74.0078,
        "meta_ra_of_asc_node": 185.0116,
        "meta_arg_of_pericenter": 310.2011,
        "meta_mean_anomaly": 64.0463,
        "meta_ephemeris_type": 0,
        "meta_classification_type": "U",
        "meta_norad_cat_id": 38055,
        "meta_element_set_no": 999,
        "meta_rev_at_epoch": 60846,
        "meta_bstar": 0.00072215259,
        "meta_mean_motion_dot": 5.255e-05,
        "meta_mean_motion_ddot": 0,
        "tle_line1": "1 38055U 93036BRM 25357.81243409  .00005255  00000+0  72215-3 0  9991",
        "tle_line2": "2 38055  74.0078 185.0116 0066111 310.2011  64.0463 14.77082596608460"
      },
      "geometry": {
        "type": "Point",
        "coordinates": [
          -139.7765382807293,
          64.50002391672905
        ]
      }
    },
    {
      "type": "Feature",
      "properties": {
        "norad_id": 38060,
        "name": "COSMOS 2251 DEB",
        "group": "cosmos-2251-debris",
        "lat": 74.00965730455005,
        "lon": -0.8308103068811765,
        "alt_km": 661.3855077047947,
        "timestamp": "2025-12-24T16:52:41.935775+00:00",
        "meta_object_name": "COSMOS 2251 DEB",
        "meta_object_id": "1993-036BRS",
        "meta_epoch": "2025-12-22T11:59:35.078784",
        "meta_mean_motion": 14.63909743,
        "meta_eccentricity": 0.00586084,
        "meta_inclination": 74.043,
        "meta_ra_of_asc_node": 276.5721,
        "meta_arg_of_pericenter": 20.0647,
        "meta_mean_anomaly": 340.2805,
        "meta_ephemeris_type": 0,
        "meta_classification_type": "U",
        "meta_norad_cat_id": 38060,
        "meta_element_set_no": 999,
        "meta_rev_at_epoch": 72107,
        "meta_bstar": 0.00053329406,
        "meta_mean_motion_dot": 2.829e-05,
        "meta_mean_motion_ddot": 0,
        "tle_line1": "1 38060U 93036BRS 25356.49971156  .00002829  00000+0  53329-3 0  9996",
        "tle_line2": "2 38060  74.0430 276.5721 0058608  20.0647 340.2805 14.63909743721078"
      },
      "geometry": {
        "type": "Point",
        "coordinates": [
          -0.8308103068811765,
          74.00965730455005
        ]
      }
    }
  ]
}